satname,norad_id,inclination_deg,eccentricity,mean_motion_rev_per_day,perigee_km,apogee_km,l1,l2
STARLINK-1143,45179,53.0481,0.0006706,15.60505748,381.6590124938439,390.731334805143,1 45179U 20012B   26059.91668981  .00159361  00000+0  18662-2 0  9990,2 45179  53.0481  12.7511 0006706  64.9999 239.9235 15.60505748  5875
STARLINK-1202,45183,53.1611,0.0001145,15.30192955,474.45139337968067,476.0208158206351,1 45183U 20012F   26059.47912788 -.00000599  00000+0 -80936-5 0  9999,2 45183  53.1611  82.0330 0001145  99.6285 260.4846 15.30192955333544
STARLINK-1216,45185,53.1604,0.0001192,15.30193004,474.41903623724374,476.05288035050216,1 45185U 20012H   26059.33901635 -.00000878  00000+0 -17528-4 0  9991,2 45185  53.1604  82.6638 0001192  83.5025 276.6111 15.30193004333462
STARLINK-1225,45187,53.1599,0.0001318,15.30191003,474.3386576278617,476.1452083145923,1 45187U 20012K   26059.33592688 -.00001114  00000+0 -25503-4 0  9993,2 45187  53.1599  83.1165 0001318  83.6159 276.4991 15.30191003333503
STARLINK-1230,45189,53.1602,0.000131,15.30207151,474.29593158140597,476.09150422949733,1 45189U 20012M   26059.34540156  .00000716  00000+0  36295-4 0  9994,2 45189  53.1602  83.1336 0001310  84.7464 275.3686 15.30207151330736
STARLINK-1234,45190,53.0456,0.0003981,15.59806817,385.5220159637629,390.90938598427783,1 45190U 20012N   26059.24045743  .00109073  00000+0  13228-2 0  9992,2 45190  53.0456  11.4069 0003981 298.1762  61.8847 15.59806817334409
STARLINK-1269,45197,53.1597,0.0001326,15.30192394,474.32902216261937,476.14653715418444,1 45197U 20012V   26059.47285978  .00000247  00000+0  20468-4 0  9999,2 45197  53.1597  82.4002 0001326  82.9454 277.1698 15.30192394333509
STARLINK-1154,45198,53.0497,0.0007272,15.44333746,428.38312795126876,438.2897349099421,1 45198U 20012W   26059.69540696  .00085127  00000+0  18054-2 0  9991,2 45198  53.0497  52.8551 0007272  49.1453 311.0182 15.44333746333901
STARLINK-1199,45201,53.155,0.0001527,15.29305348,476.8407262380051,478.93455616342726,1 45201U 20012Z   26059.91668981  .00054511  00000+0  18905-2 0  9997,2 45201  53.1550  64.5381 0001527  87.7618  34.8968 15.29305348  5858
STARLINK-1209,45206,53.0475,0.0005855,15.49234215,414.98531113275294,422.9447175915702,1 45206U 20012AE  26059.91668981  .00085647  00000+0  15342-2 0  9998,2 45206  53.0475  15.5514 0005855 256.8850 159.6685 15.49234215  5844
STARLINK-1210,45207,53.0039,0.0005155,16.1831843,220.7179887431157,227.52491720813305,1 45207U 20012AF  26059.64626687  .01420495  16968-2  84089-3 0  9999,2 45207  53.0039 305.5059 0005155 217.8328 142.2347 16.18318430335463
STARLINK-1231,45212,53.0507,0.0004435,15.20098025,502.49175108081636,508.5975767166956,1 45212U 20012AL  26059.28104804  .00044969  00000+0  20577-2 0  9992,2 45212  53.0507  58.9675 0004435  42.8829 317.2511 15.20098025333792
STARLINK-1271,45217,53.155,0.000112,15.29336543,477.0265449879689,478.5622736236528,1 45217U 20012AR  26059.91668981  .00055631  00000+0  19269-2 0  9992,2 45217  53.1550  64.6988 0001120  93.0055  20.8664 15.29336543  5739
STARLINK-1191,45222,53.1578,0.0001321,15.30172667,474.39134345594994,476.2020206347461,1 45222U 20012AW  26059.91668981  .00059415  00000+0  20039-2 0  9999,2 45222  53.1578  39.5745 0001321  97.5087 259.2477 15.30172667  5809
STARLINK-1212,45223,53.0504,0.0005917,15.50044023,412.57696973419115,420.61785843982216,1 45223U 20012AX  26059.83032645  .00097529  00000+0  16943-2 0  9990,2 45223  53.0504  32.6689 0005917  69.6963 290.4680 15.50044023334261
STARLINK-1215,45225,53.1629,0.0001444,15.30186499,474.2657514082912,476.24501112800135,1 45225U 20012AZ  26059.64227184 -.00000413  00000+0 -18047-5 0  9993,2 45225  53.1629  40.3308 0001444  97.7602 262.3563 15.30186499334090
STARLINK-1221,45227,53.0671,0.0002878,15.41548531,439.5757453418564,443.50115052968704,1 45227U 20012BB  26059.83607600  .00018100  00000+0  43305-3 0  9994,2 45227  53.0671 311.5576 0002878  32.2366 327.8814 15.41548531335347
STARLINK-1222,45228,53.0569,0.0003933,15.48878384,417.3322846705405,422.67970394986605,1 45228U 20012BC  26059.26642873  .00025820  00000+0  47779-3 0  9999,2 45228  53.0569  27.9681 0003933  57.4414 302.6972 15.48878384334169
STARLINK-1226,45229,53.1607,0.0001364,15.30411247,473.6496853104636,475.51910770743143,1 45229U 20012BD  26059.67175733 -.00049919  00000+0 -16735-2 0  9995,2 45229  53.1607  40.5049 0001364  82.4962 277.6193 15.30411247334039
STARLINK-1227,45230,53.1614,0.0001263,15.31024,471.89058969976395,473.6211252355606,1 45230U 20012BE  26059.30660278  .00000526  00000+0  29244-4 0  9990,2 45230  53.1614  42.5062 0001263  87.4000 272.7146 15.31024000334090
STARLINK-1246,45235,53.1589,0.000127,15.30203047,474.33559708424764,476.07634619904456,1 45235U 20012BK  26059.48230112  .00005083  00000+0  18362-3 0  9995,2 45235  53.1589  82.0175 0001270  92.0945 268.0201 15.30203047333568
STARLINK-1270,45237,53.0506,0.000419,15.45190911,427.9642239109926,433.67012751023685,1 45237U 20012BM  26059.33858252  .00079131  00000+0  16328-2 0  9996,2 45237  53.0506  32.1644 0004190  46.6115 313.5239 15.45190911334225
STARLINK-1279,45360,53.0436,0.000154,15.55656153,399.20207304997984,401.28981499673955,1 45360U 20019A   26059.91668981  .00067762  00000+0  96775-3 0  9994,2 45360  53.0436 141.2019 0001540 161.4868 290.8196 15.55656153  5656
STARLINK-1301,45361,53.0431,0.0002793,15.62985467,377.15146987032495,380.926028243749,1 45361U 20019B   26059.91668981  .00091351  00000+0  98327-3 0  9991,2 45361  53.0431 147.0743 0002793 178.9468 240.7412 15.62985467  5825
STARLINK-1262,45366,53.1105,0.0001944,15.19649775,505.55979625740565,508.2366979614826,1 45366U 20019G   26059.91668981  .00101198  00000+0  46376-2 0  9993,2 45366  53.1105 205.5084 0001944  91.8027  86.3054 15.19649775  5847
STARLINK-1273,45367,53.0518,5.33e-05,15.43280898,436.07078483914574,436.79721810790306,1 45367U 20019H   26059.79409186  .00053254  00000+0  11795-2 0  9996,2 45367  53.0518 197.0916 0000533 299.7069  60.3883 15.43280898328521
STARLINK-1276,45368,53.0554,0.0001141,15.06392757,546.4435719756912,548.0239415823889,1 45368U 20019J   26059.72785946  .00002066  00000+0  15755-3 0  9997,2 45368  53.0554 206.8491 0001141  84.1957 275.9162 15.06392757328382
STARLINK-1277,45369,53.0512,0.000148,15.47116969,424.1579829813054,426.17176033531723,1 45369U 20019K   26059.78453491  .00102342  00000+0  19687-2 0  9996,2 45369  53.0512 195.2124 0001480 346.8304  13.2664 15.47116969328554
STARLINK-1281,45370,53.1052,0.0002112,15.1807735,510.1966511319715,513.1068979103302,1 45370U 20019L   26059.91668981  .01206758  00000+0  53611-1 0  9996,2 45370  53.1052 205.6949 0002112  87.1046  87.4240 15.18077350  5786
STARLINK-1300,45374,53.107,0.000123,15.18695725,508.93420024547413,510.62862817537007,1 45374U 20019Q   26059.91668981  .00991749  00000+0  43410-1 0  9996,2 45374  53.1070 205.7330 0001230  86.1264 307.7640 15.18695725  5522
STARLINK-1302,45375,53.0515,0.0002224,15.47824169,421.5798371748906,424.6050240256218,1 45375U 20019R   26059.74700906  .00048076  00000+0  91313-3 0  9995,2 45375  53.0515 194.7113 0002224 253.5128 106.5635 15.47824169328553
STARLINK-1304,45376,53.0486,0.000203,15.46476907,425.6604759237016,428.42337856816266,1 45376U 20019S   26059.60294771  .00092286  00000+0  18181-2 0  9992,2 45376  53.0486 192.9275 0002030 233.1079 126.9742 15.46476907328562
STARLINK-1305,45377,53.0449,0.0003291,15.51062555,411.3873339619013,415.85767006612696,1 45377U 20019T   26059.69489786  .00101861  00000+0  17062-2 0  9991,2 45377  53.0449 175.5568 0003291 113.4249 246.7106 15.51062555328823
STARLINK-1319,45379,53.0458,0.0001538,15.58493456,390.97530832466236,393.05780755908563,1 45379U 20019V   26059.91668981  .01194882  00000+0  14019-1 0  9998,2 45379  53.0458 172.6898 0001538  85.2721 285.2996 15.58493456  5914
STARLINK-1266,45383,53.0506,0.0002209,15.43857337,433.2326678662903,436.2425958786516,1 45383U 20019Z   26059.72988654  .00077380  00000+0  16715-2 0  9992,2 45383  53.0506 175.6101 0002209 334.2982  25.7913 15.43857337328814
STARLINK-1267,45384,53.0523,0.0004076,15.48018175,419.75222469434266,425.29612368354174,1 45384U 20019AA  26059.71512316  .00112032  00000+0  20851-2 0  9990,2 45384  53.0523 169.9911 0004076 215.4343 144.6394 15.48018175328890
STARLINK-1272,45386,53.0452,0.0002254,15.54408959,402.34259232475324,405.399921647002,1 45386U 20019AC  26059.54393846  .00105366  00000+0  15637-2 0  9996,2 45386  53.0452 154.0320 0002254 140.5041 219.6133 15.54408959329100
STARLINK-1274,45387,53.028,0.0005136,15.4562886,426.0344997772254,433.0273362626149,1 45387U 20019AD  26059.47927429  .00032829  00000+0  67638-3 0  9991,2 45387  53.0280 146.9026 0005136 203.3544 156.7229 15.45628860329192
STARLINK-1280,45388,53.0446,0.000148,15.64170744,374.62518444741,376.6242979228009,1 45388U 20019AE  26059.91668981  .00087940  00000+0  90420-3 0  9995,2 45388  53.0446 165.5410 0001480 125.8713 320.9924 15.64170744  5726
STARLINK-1283,45389,53.0449,0.0005261,15.54336943,400.512614626894,407.6488641322694,1 45389U 20019AF  26059.91668981  .00068349  00000+0  10239-2 0  9997,2 45389  53.0449 152.4347 0005261 205.0845 152.8977 15.54336943  5917
STARLINK-1284,45390,53.049,0.0001645,15.50000007,415.6082937878018,417.8438037308433,1 45390U 20019AG  26059.72086320  .00087524  00000+0  15264-2 0  9998,2 45390  53.0490 174.0829 0001645 334.5558  25.5369 15.50000007328836
STARLINK-1297,45395,53.0485,0.0002604,15.52194249,408.55316998277885,412.08859884898266,1 45395U 20019AM  26059.80931272  .00094308  00000+0  15192-2 0  9995,2 45395  53.0485 173.5165 0002604 344.2545  15.8383 15.52194249328036
STARLINK-1307,45397,53.056,0.0001113,15.49460123,417.5478856810487,419.06077352101784,1 45397U 20019AP  26059.58973438  .00027861  00000+0  50450-3 0  9999,2 45397  53.0560 174.3887 0001113  45.2597 314.8501 15.49460123328645
